{"type":"FeatureCollection","features":[{"type":"Feature","geometry":{"type":"MultiPolygon","coordinates":[[[[78.285,17.4275],[78.285,17.43],[78.2775,17.43],[78.2775,17.4325],[78.275,17.4325],[78.275,17.435],[78.2725,17.435],[78.2725,17.445],[78.275,17.445],[78.275,17.4475],[78.2775,17.4475],[78.2775,17.45],[78.28,17.45],[78.28,17.4525],[78.2825,17.4525],[78.2825,17.455],[78.2875,17.455],[78.2875,17.45],[78.29,17.45],[78.29,17.4675],[78.2925,17.4675],[78.2925,17.47],[78.295,17.47],[78.295,17.465],[78.3,17.465],[78.3,17.47],[78.2975,17.47],[78.2975,17.4725],[78.295,17.4725],[78.295,17.485],[78.3075,17.485],[78.3075,17.4875],[78.3125,17.4875],[78.3125,17.4925],[78.315,17.4925],[78.315,17.495],[78.3125,17.495],[78.3125,17.5],[78.31,17.5],[78.31,17.5025],[78.3,17.5025],[78.3,17.505],[78.2975,17.505],[78.2975,17.51],[78.29,17.51],[78.29,17.505],[78.2825,17.505],[78.2825,17.5075],[78.28,17.5075],[78.28,17.51],[78.2825,17.51],[78.2825,17.515],[78.28,17.515],[78.28,17.5175],[78.275,17.5175],[78.275,17.52],[78.2725,17.52],[78.2725,17.5225],[78.2625,17.5225],[78.2625,17.515],[78.26,17.515],[78.26,17.52],[78.2575,17.52],[78.2575,17.5275],[78.255,17.5275],[78.255,17.525],[78.2525,17.525],[78.2525,17.5325],[78.245,17.5325],[78.245,17.535],[78.24,17.535],[78.24,17.5375],[78.2375,17.5375],[78.2375,17.54],[78.2525,17.54],[78.2525,17.5475],[78.26,17.5475],[78.26,17.5525],[78.2625,17.5525],[78.2625,17.55],[78.2675,17.55],[78.2675,17.5525],[78.27,17.5525],[78.27,17.55],[78.2725,17.55],[78.2725,17.5525],[78.275,17.5525],[78.275,17.555],[78.2775,17.555],[78.2775,17.5525],[78.2825,17.5525],[78.2825,17.55],[78.28,17.55],[78.28,17.545],[78.2775,17.545],[78.2775,17.5425],[78.2725,17.5425],[78.2725,17.54],[78.2675,17.54],[78.2675,17.5375],[78.275,17.5375],[78.275,17.535],[78.2775,17.535],[78.2775,17.5375],[78.2825,17.5375],[78.2825,17.535],[78.285,17.535],[78.285,17.525],[78.2875,17.525],[78.2875,17.5225],[78.29,17.5225],[78.29,17.52],[78.2925,17.52],[78.2925,17.5125],[78.2975,17.5125],[78.2975,17.515],[78.3,17.515],[78.3,17.5125],[78.3075,17.5125],[78.3075,17.51],[78.3175,17.51],[78.3175,17.5125],[78.32,17.5125],[78.32,17.515],[78.3175,17.515],[78.3175,17.5375],[78.3125,17.5375],[78.3125,17.54],[78.315,17.54],[78.315,17.5425],[78.3175,17.5425],[78.3175,17.55],[78.32,17.55],[78.32,17.5525],[78.3175,17.5525],[78.3175,17.555],[78.315,17.555],[78.315,17.56],[78.325,17.56],[78.325,17.5625],[78.32,17.5625],[78.32,17.565],[78.3125,17.565],[78.3125,17.5675],[78.3175,17.5675],[78.3175,17.575],[78.315,17.575],[78.315,17.5775],[78.3175,17.5775],[78.3175,17.5825],[78.315,17.5825],[78.315,17.585],[78.335,17.585],[78.335,17.5875],[78.3375,17.5875],[78.3375,17.585],[78.34,17.585],[78.34,17.5775],[78.335,17.5775],[78.335,17.5725],[78.3475,17.5725],[78.3475,17.575],[78.3525,17.575],[78.3525,17.5775],[78.355,17.5775],[78.355,17.5825],[78.36,17.5825],[78.36,17.5875],[78.3625,17.5875],[78.3625,17.58],[78.3575,17.58],[78.3575,17.575],[78.355,17.575],[78.355,17.5675],[78.3575,17.5675],[78.3575,17.565],[78.36,17.565],[78.36,17.5675],[78.3675,17.5675],[78.3675,17.565],[78.37,17.565],[78.37,17.5675],[78.38,17.5675],[78.38,17.57],[78.3825,17.57],[78.3825,17.575],[78.385,17.575],[78.385,17.5775],[78.3875,17.5775],[78.3875,17.58],[78.39,17.58],[78.39,17.5825],[78.3875,17.5825],[78.3875,17.585],[78.3925,17.585],[78.3925,17.59],[78.395,17.59],[78.395,17.5875],[78.4,17.5875],[78.4,17.59],[78.405,17.59],[78.405,17.5875],[78.4025,17.5875],[78.4025,17.5725],[78.4,17.5725],[78.4,17.5675],[78.4025,17.5675],[78.4025,17.57],[78.4075,17.57],[78.4075,17.555],[78.405,17.555],[78.405,17.5525],[78.4075,17.5525],[78.4075,17.5425],[78.4125,17.5425],[78.4125,17.54],[78.4175,17.54],[78.4175,17.5475],[78.42,17.5475],[78.42,17.5525],[78.415,17.5525],[78.415,17.555],[78.4225,17.555],[78.4225,17.5525],[78.425,17.5525],[78.425,17.55],[78.43,17.55],[78.43,17.5525],[78.4325,17.5525],[78.4325,17.555],[78.44,17.555],[78.44,17.5525],[78.4425,17.5525],[78.4425,17.545],[78.445,17.545],[78.445,17.535],[78.455,17.535],[78.455,17.5325],[78.4575,17.5325],[78.4575,17.535],[78.46,17.535],[78.46,17.53],[78.4625,17.53],[78.4625,17.525],[78.4675,17.525],[78.4675,17.5225],[78.475,17.5225],[78.475,17.52],[78.48,17.52],[78.48,17.525],[78.485,17.525],[78.485,17.5275],[78.4875,17.5275],[78.4875,17.5325],[78.4925,17.5325],[78.4925,17.53],[78.495,17.53],[78.495,17.5275],[78.5,17.5275],[78.5,17.5325],[78.5025,17.5325],[78.5025,17.535],[78.505,17.535],[78.505,17.54],[78.5075,17.54],[78.5075,17.545],[78.52,17.545],[78.52,17.5375],[78.5225,17.5375],[78.5225,17.5325],[78.52,17.5325],[78.52,17.5275],[78.5175,17.5275],[78.5175,17.525],[78.515,17.525],[78.515,17.5175],[78.5175,17.5175],[78.5175,17.51],[78.515,17.51],[78.515,17.4975],[78.5125,17.4975],[78.5125,17.495],[78.515,17.495],[78.515,17.49],[78.5125,17.49],[78.5125,17.4925],[78.51,17.4925],[78.51,17.4875],[78.505,17.4875],[78.505,17.4825],[78.5025,17.4825],[78.5025,17.48],[78.5,17.48],[78.5,17.475],[78.495,17.475],[78.495,17.4675],[78.49,17.4675],[78.49,17.47],[78.48,17.47],[78.48,17.4725],[78.475,17.4725],[78.475,17.4875],[78.4775,17.4875],[78.4775,17.49],[78.4825,17.49],[78.4825,17.4925],[78.485,17.4925],[78.485,17.49],[78.4875,17.49],[78.4875,17.4875],[78.49,17.4875],[78.49,17.495],[78.4925,17.495],[78.4925,17.5025],[78.485,17.5025],[78.485,17.5],[78.48,17.5],[78.48,17.4975],[78.4775,17.4975],[78.4775,17.495],[78.475,17.495],[78.475,17.4975],[78.4725,17.4975],[78.4725,17.495],[78.4675,17.495],[78.4675,17.49],[78.4625,17.49],[78.4625,17.4775],[78.46,17.4775],[78.46,17.485],[78.4575,17.485],[78.4575,17.4875],[78.4525,17.4875],[78.4525,17.485],[78.45,17.485],[78.45,17.4725],[78.4475,17.4725],[78.4475,17.4675],[78.4525,17.4675],[78.4525,17.47],[78.455,17.47],[78.455,17.475],[78.4575,17.475],[78.4575,17.4725],[78.465,17.4725],[78.465,17.4625],[78.4625,17.4625],[78.4625,17.4575],[78.455,17.4575],[78.455,17.45],[78.4675,17.45],[78.4675,17.445],[78.48,17.445],[78.48,17.4425],[78.4925,17.4425],[78.4925,17.445],[78.5025,17.445],[78.5025,17.4525],[78.5075,17.4525],[78.5075,17.45],[78.51,17.45],[78.51,17.4475],[78.52,17.4475],[78.52,17.45],[78.5225,17.45],[78.5225,17.455],[78.525,17.455],[78.525,17.4575],[78.5275,17.4575],[78.5275,17.46],[78.53,17.46],[78.53,17.4625],[78.5325,17.4625],[78.5325,17.465],[78.53,17.465],[78.53,17.4725],[78.5275,17.4725],[78.5275,17.475],[78.525,17.475],[78.525,17.4775],[78.5225,17.4775],[78.5225,17.485],[78.525,17.485],[78.525,17.4875],[78.5275,17.4875],[78.5275,17.49],[78.53,17.49],[78.53,17.4925],[78.535,17.4925],[78.535,17.4975],[78.5325,17.4975],[78.5325,17.505],[78.53,17.505],[78.53,17.5125],[78.5325,17.5125],[78.5325,17.51],[78.535,17.51],[78.535,17.5125],[78.54,17.5125],[78.54,17.51],[78.5425,17.51],[78.5425,17.5125],[78.545,17.5125],[78.545,17.515],[78.55,17.515],[78.55,17.51],[78.5525,17.51],[78.5525,17.5075],[78.565,17.5075],[78.565,17.505],[78.5675,17.505],[78.5675,17.5025],[78.57,17.5025],[78.57,17.5075],[78.5725,17.5075],[78.5725,17.51],[78.575,17.51],[78.575,17.5075],[78.58,17.5075],[78.58,17.505],[78.5825,17.505],[78.5825,17.5025],[78.5875,17.5025],[78.5875,17.5],[78.59,17.5],[78.59,17.48],[78.5925,17.48],[78.5925,17.475],[78.5975,17.475],[78.5975,17.4775],[78.61,17.4775],[78.61,17.475],[78.6125,17.475],[78.6125,17.4775],[78.62,17.4775],[78.62,17.4725],[78.6175,17.4725],[78.6175,17.47],[78.615,17.47],[78.615,17.465],[78.6125,17.465],[78.6125,17.4625],[78.61,17.4625],[78.61,17.4575],[78.605,17.4575],[78.605,17.455],[78.6,17.455],[78.6,17.4525],[78.61,17.4525],[78.61,17.45],[78.6125,17.45],[78.6125,17.4475],[78.6075,17.4475],[78.6075,17.445],[78.605,17.445],[78.605,17.4475],[78.6025,17.4475],[78.6025,17.445],[78.595,17.445],[78.595,17.4475],[78.5925,17.4475],[78.5925,17.445],[78.5875,17.445],[78.5875,17.44],[78.585,17.44],[78.585,17.4375],[78.58,17.4375],[78.58,17.43],[78.5775,17.43],[78.5775,17.4275],[78.5675,17.4275],[78.5675,17.425],[78.5625,17.425],[78.5625,17.4225],[78.565,17.4225],[78.565,17.42],[78.5675,17.42],[78.5675,17.4125],[78.57,17.4125],[78.57,17.41],[78.5725,17.41],[78.5725,17.4075],[78.5775,17.4075],[78.5775,17.4025],[78.5825,17.4025],[78.5825,17.4],[78.58,17.4],[78.58,17.3975],[78.575,17.3975],[78.575,17.395],[78.5775,17.395],[78.5775,17.3925],[78.58,17.3925],[78.58,17.395],[78.5825,17.395],[78.5825,17.3925],[78.585,17.3925],[78.585,17.3875],[78.5825,17.3875],[78.5825,17.39],[78.5775,17.39],[78.5775,17.3875],[78.58,17.3875],[78.58,17.3825],[78.5825,17.3825],[78.5825,17.38],[78.58,17.38],[78.58,17.375],[78.5825,17.375],[78.5825,17.3675],[78.58,17.3675],[78.58,17.365],[78.5775,17.365],[78.5775,17.3675],[78.575,17.3675],[78.575,17.365],[78.5725,17.365],[78.5725,17.3625],[78.57,17.3625],[78.57,17.3575],[78.5725,17.3575],[78.5725,17.355],[78.575,17.355],[78.575,17.35],[78.5825,17.35],[78.5825,17.3375],[78.5875,17.3375],[78.5875,17.335],[78.59,17.335],[78.59,17.34],[78.5925,17.34],[78.5925,17.3425],[78.595,17.3425],[78.595,17.345],[78.6,17.345],[78.6,17.3475],[78.61,17.3475],[78.61,17.345],[78.6175,17.345],[78.6175,17.3425],[78.6225,17.3425],[78.6225,17.335],[78.62,17.335],[78.62,17.33],[78.6175,17.33],[78.6175,17.325],[78.62,17.325],[78.62,17.3175],[78.6225,17.3175],[78.6225,17.31],[78.615,17.31],[78.615,17.3075],[78.6,17.3075],[78.6,17.305],[78.5975,17.305],[78.5975,17.3025],[78.595,17.3025],[78.595,17.305],[78.5925,17.305],[78.5925,17.3025],[78.59,17.3025],[78.59,17.3],[78.585,17.3],[78.585,17.3025],[78.58,17.3025],[78.58,17.305],[78.5775,17.305],[78.5775,17.3125],[78.575,17.3125],[78.575,17.31],[78.5675,17.31],[78.5675,17.3075],[78.565,17.3075],[78.565,17.31],[78.5575,17.31],[78.5575,17.3125],[78.55,17.3125],[78.55,17.315],[78.5475,17.315],[78.5475,17.3175],[78.545,17.3175],[78.545,17.32],[78.5425,17.32],[78.5425,17.3225],[78.535,17.3225],[78.535,17.3275],[78.5325,17.3275],[78.5325,17.33],[78.535,17.33],[78.535,17.335],[78.53,17.335],[78.53,17.3375],[78.5275,17.3375],[78.5275,17.335],[78.5175,17.335],[78.5175,17.34],[78.515,17.34],[78.515,17.3425],[78.5075,17.3425],[78.5075,17.34],[78.5025,17.34],[78.5025,17.3375],[78.5,17.3375],[78.5,17.335],[78.495,17.335],[78.495,17.3325],[78.4925,17.3325],[78.4925,17.33],[78.4975,17.33],[78.4975,17.325],[78.5,17.325],[78.5,17.32],[78.4975,17.32],[78.4975,17.315],[78.495,17.315],[78.495,17.3175],[78.49,17.3175],[78.49,17.3125],[78.4775,17.3125],[78.4775,17.31],[78.4725,17.31],[78.4725,17.3075],[78.47,17.3075],[78.47,17.31],[78.4675,17.31],[78.4675,17.3125],[78.4625,17.3125],[78.4625,17.3075],[78.4575,17.3075],[78.4575,17.305],[78.46,17.305],[78.46,17.3025],[78.455,17.3025],[78.455,17.305],[78.4525,17.305],[78.4525,17.3025],[78.45,17.3025],[78.45,17.3],[78.435,17.3],[78.435,17.305],[78.4325,17.305],[78.4325,17.3],[78.4275,17.3],[78.4275,17.3025],[78.4225,17.3025],[78.4225,17.295],[78.415,17.295],[78.415,17.3025],[78.4125,17.3025],[78.4125,17.305],[78.415,17.305],[78.415,17.3075],[78.4125,17.3075],[78.4125,17.3175],[78.415,17.3175],[78.415,17.32],[78.4125,17.32],[78.4125,17.3225],[78.405,17.3225],[78.405,17.32],[78.4075,17.32],[78.4075,17.315],[78.41,17.315],[78.41,17.31],[78.4075,17.31],[78.4075,17.3125],[78.405,17.3125],[78.405,17.315],[78.4,17.315],[78.4,17.3125],[78.3925,17.3125],[78.3925,17.31],[78.395,17.31],[78.395,17.305],[78.3875,17.305],[78.3875,17.3075],[78.385,17.3075],[78.385,17.3125],[78.3775,17.3125],[78.3775,17.315],[78.38,17.315],[78.38,17.32],[78.3775,17.32],[78.3775,17.3225],[78.375,17.3225],[78.375,17.325],[78.3825,17.325],[78.3825,17.33],[78.385,17.33],[78.385,17.3275],[78.395,17.3275],[78.395,17.325],[78.3975,17.325],[78.3975,17.3275],[78.4025,17.3275],[78.4025,17.33],[78.395,17.33],[78.395,17.3325],[78.3975,17.3325],[78.3975,17.345],[78.4,17.345],[78.4,17.3525],[78.3975,17.3525],[78.3975,17.355],[78.4,17.355],[78.4,17.3575],[78.4025,17.3575],[78.4025,17.36],[78.4075,17.36],[78.4075,17.3575],[78.41,17.3575],[78.41,17.3625],[78.4075,17.3625],[78.4075,17.365],[78.41,17.365],[78.41,17.3725],[78.3975,17.3725],[78.3975,17.37],[78.39,17.37],[78.39,17.3725],[78.3925,17.3725],[78.3925,17.375],[78.38,17.375],[78.38,17.3775],[78.3775,17.3775],[78.3775,17.3875],[78.38,17.3875],[78.38,17.3925],[78.385,17.3925],[78.385,17.385],[78.3825,17.385],[78.3825,17.3825],[78.385,17.3825],[78.385,17.38],[78.3825,17.38],[78.3825,17.3775],[78.395,17.3775],[78.395,17.38],[78.3975,17.38],[78.3975,17.3825],[78.4025,17.3825],[78.4025,17.385],[78.3975,17.385],[78.3975,17.3875],[78.395,17.3875],[78.395,17.39],[78.39,17.39],[78.39,17.405],[78.385,17.405],[78.385,17.41],[78.3875,17.41],[78.3875,17.4125],[78.385,17.4125],[78.385,17.415],[78.38,17.415],[78.38,17.4175],[78.3775,17.4175],[78.3775,17.415],[78.375,17.415],[78.375,17.4125],[78.3725,17.4125],[78.3725,17.41],[78.37,17.41],[78.37,17.4125],[78.365,17.4125],[78.365,17.41],[78.3625,17.41],[78.3625,17.415],[78.3525,17.415],[78.3525,17.4125],[78.35,17.4125],[78.35,17.415],[78.3475,17.415],[78.3475,17.4125],[78.3425,17.4125],[78.3425,17.415],[78.34,17.415],[78.34,17.4175],[78.3375,17.4175],[78.3375,17.415],[78.3275,17.415],[78.3275,17.42],[78.32,17.42],[78.32,17.4225],[78.3225,17.4225],[78.3225,17.425],[78.32,17.425],[78.32,17.43],[78.3125,17.43],[78.3125,17.4225],[78.31,17.4225],[78.31,17.4275],[78.3075,17.4275],[78.3075,17.43],[78.3025,17.43],[78.3025,17.4275],[78.3,17.4275],[78.3,17.43],[78.29,17.43],[78.29,17.4275],[78.285,17.4275]],[[78.2875,17.45],[78.2825,17.45],[78.2825,17.4475],[78.2875,17.4475],[78.2875,17.45]],[[78.2675,17.54],[78.2675,17.545],[78.265,17.545],[78.265,17.54],[78.2675,17.54]],[[78.2825,17.525],[78.2825,17.5225],[78.285,17.5225],[78.285,17.525],[78.2825,17.525]],[[78.28,17.5225],[78.28,17.52],[78.2825,17.52],[78.2825,17.5225],[78.28,17.5225]],[[78.32,17.5375],[78.32,17.54],[78.3175,17.54],[78.3175,17.5375],[78.32,17.5375]],[[78.325,17.5625],[78.3425,17.5625],[78.3425,17.565],[78.345,17.565],[78.345,17.57],[78.335,17.57],[78.335,17.5675],[78.33,17.5675],[78.33,17.565],[78.325,17.565],[78.325,17.5625]],[[78.485,17.5225],[78.49,17.5225],[78.49,17.525],[78.485,17.525],[78.485,17.5225]],[[78.575,17.3875],[78.575,17.3825],[78.5775,17.3825],[78.5775,17.3875],[78.575,17.3875]],[[78.3875,17.3125],[78.3875,17.315],[78.385,17.315],[78.385,17.3125],[78.3875,17.3125]],[[78.4025,17.325],[78.405,17.325],[78.405,17.3275],[78.4025,17.3275],[78.4025,17.325]],[[78.3875,17.415],[78.3875,17.4175],[78.385,17.4175],[78.385,17.415],[78.3875,17.415]],[[78.4425,17.5075],[78.44,17.5075],[78.44,17.505],[78.4375,17.505],[78.4375,17.5025],[78.435,17.5025],[78.435,17.4975],[78.45,17.4975],[78.45,17.5025],[78.4475,17.5025],[78.4475,17.51],[78.4425,17.51],[78.4425,17.5075]],[[78.445,17.4825],[78.4375,17.4825],[78.4375,17.485],[78.44,17.485],[78.44,17.4875],[78.435,17.4875],[78.435,17.485],[78.4325,17.485],[78.4325,17.4725],[78.44,17.4725],[78.44,17.475],[78.4475,17.475],[78.4475,17.48],[78.445,17.48],[78.445,17.4825]],[[78.44,17.47],[78.4425,17.47],[78.4425,17.4725],[78.44,17.4725],[78.44,17.47]],[[78.4525,17.355],[78.445,17.355],[78.445,17.3525],[78.4325,17.3525],[78.4325,17.35],[78.435,17.35],[78.435,17.3475],[78.4375,17.3475],[78.4375,17.345],[78.4425,17.345],[78.4425,17.3425],[78.445,17.3425],[78.445,17.345],[78.4475,17.345],[78.4475,17.3475],[78.45,17.3475],[78.45,17.3525],[78.4525,17.3525],[78.4525,17.355]],[[78.385,17.57],[78.385,17.5625],[78.3975,17.5625],[78.3975,17.5725],[78.39,17.5725],[78.39,17.575],[78.3875,17.575],[78.3875,17.57],[78.385,17.57]],[[78.3825,17.5625],[78.38,17.5625],[78.38,17.56],[78.3775,17.56],[78.3775,17.5575],[78.375,17.5575],[78.375,17.555],[78.3725,17.555],[78.3725,17.5525],[78.375,17.5525],[78.375,17.545],[78.3775,17.545],[78.3775,17.5475],[78.38,17.5475],[78.38,17.55],[78.3775,17.55],[78.3775,17.555],[78.38,17.555],[78.38,17.5575],[78.385,17.5575],[78.385,17.56],[78.3825,17.56],[78.3825,17.5625]],[[78.3825,17.5425],[78.38,17.5425],[78.38,17.54],[78.3775,17.54],[78.3775,17.5375],[78.385,17.5375],[78.385,17.54],[78.3825,17.54],[78.3825,17.5425]],[[78.38,17.5325],[78.38,17.53],[78.385,17.53],[78.385,17.5325],[78.38,17.5325]],[[78.3825,17.48],[78.3875,17.48],[78.3875,17.4825],[78.3825,17.4825],[78.3825,17.48]],[[78.38,17.48],[78.38,17.4775],[78.3825,17.4775],[78.3825,17.48],[78.38,17.48]],[[78.3825,17.475],[78.385,17.475],[78.385,17.4775],[78.3825,17.4775],[78.3825,17.475]],[[78.3925,17.43],[78.385,17.43],[78.385,17.4225],[78.3875,17.4225],[78.3875,17.425],[78.3925,17.425],[78.3925,17.43]],[[78.395,17.4175],[78.395,17.42],[78.3925,17.42],[78.3925,17.4175],[78.395,17.4175]],[[78.3375,17.5575],[78.335,17.5575],[78.335,17.555],[78.3375,17.555],[78.3375,17.5575]],[[78.34,17.54],[78.34,17.5425],[78.335,17.5425],[78.335,17.54],[78.34,17.54]],[[78.3325,17.5275],[78.3275,17.5275],[78.3275,17.5225],[78.33,17.5225],[78.33,17.52],[78.3325,17.52],[78.3325,17.5175],[78.335,17.5175],[78.335,17.52],[78.34,17.52],[78.34,17.5225],[78.3375,17.5225],[78.3375,17.525],[78.3325,17.525],[78.3325,17.5275]],[[78.35,17.5075],[78.35,17.51],[78.3475,17.51],[78.3475,17.5075],[78.35,17.5075]],[[78.345,17.5075],[78.345,17.505],[78.3475,17.505],[78.3475,17.5075],[78.345,17.5075]],[[78.3475,17.485],[78.3475,17.4875],[78.345,17.4875],[78.345,17.485],[78.3475,17.485]],[[78.345,17.4525],[78.35,17.4525],[78.35,17.45],[78.355,17.45],[78.355,17.4525],[78.3625,17.4525],[78.3625,17.455],[78.3575,17.455],[78.3575,17.4575],[78.355,17.4575],[78.355,17.455],[78.3475,17.455],[78.3475,17.4575],[78.345,17.4575],[78.345,17.4525]],[[78.3425,17.4525],[78.3375,17.4525],[78.3375,17.45],[78.3325,17.45],[78.3325,17.4525],[78.325,17.4525],[78.325,17.455],[78.3225,17.455],[78.3225,17.4525],[78.32,17.4525],[78.32,17.45],[78.3125,17.45],[78.3125,17.4475],[78.31,17.4475],[78.31,17.445],[78.3125,17.445],[78.3125,17.4425],[78.315,17.4425],[78.315,17.44],[78.3175,17.44],[78.3175,17.4375],[78.3225,17.4375],[78.3225,17.445],[78.325,17.445],[78.325,17.45],[78.3275,17.45],[78.3275,17.4475],[78.3325,17.4475],[78.3325,17.445],[78.3375,17.445],[78.3375,17.44],[78.3475,17.44],[78.3475,17.4425],[78.35,17.4425],[78.35,17.4475],[78.3475,17.4475],[78.3475,17.45],[78.3425,17.45],[78.3425,17.4525]],[[78.3225,17.4375],[78.3225,17.4325],[78.325,17.4325],[78.325,17.435],[78.3275,17.435],[78.3275,17.4375],[78.3225,17.4375]],[[78.3275,17.4325],[78.33,17.4325],[78.33,17.435],[78.3275,17.435],[78.3275,17.4325]],[[78.345,17.4325],[78.345,17.4275],[78.3475,17.4275],[78.3475,17.425],[78.3575,17.425],[78.3575,17.435],[78.355,17.435],[78.355,17.4375],[78.35,17.4375],[78.35,17.435],[78.3475,17.435],[78.3475,17.4325],[78.345,17.4325]],[[78.3225,17.475],[78.3225,17.4725],[78.325,17.4725],[78.325,17.475],[78.3225,17.475]],[[78.3175,17.4675],[78.3175,17.4625],[78.315,17.4625],[78.315,17.46],[78.3125,17.46],[78.3125,17.4575],[78.31,17.4575],[78.31,17.455],[78.3125,17.455],[78.3125,17.4525],[78.315,17.4525],[78.315,17.455],[78.32,17.455],[78.32,17.46],[78.3275,17.46],[78.3275,17.4625],[78.325,17.4625],[78.325,17.465],[78.3275,17.465],[78.3275,17.47],[78.32,17.47],[78.32,17.4675],[78.3175,17.4675]],[[78.3,17.4425],[78.3025,17.4425],[78.3025,17.445],[78.3,17.445],[78.3,17.4425]],[[78.295,17.4625],[78.295,17.46],[78.2975,17.46],[78.2975,17.4625],[78.295,17.4625]],[[78.2975,17.44],[78.2975,17.445],[78.2925,17.445],[78.2925,17.4425],[78.295,17.4425],[78.295,17.44],[78.2975,17.44]],[[78.2925,17.4425],[78.2875,17.4425],[78.2875,17.44],[78.2925,17.44],[78.2925,17.4425]],[[78.275,17.4375],[78.2775,17.4375],[78.2775,17.44],[78.275,17.44],[78.275,17.4375]],[[78.2825,17.44],[78.285,17.44],[78.285,17.4425],[78.2825,17.4425],[78.2825,17.44]],[[78.2975,17.435],[78.2925,17.435],[78.2925,17.4325],[78.2975,17.4325],[78.2975,17.435]],[[78.2925,17.4575],[78.2925,17.45],[78.2975,17.45],[78.2975,17.455],[78.295,17.455],[78.295,17.4575],[78.2925,17.4575]],[[78.26,17.545],[78.2575,17.545],[78.2575,17.54],[78.26,17.54],[78.26,17.545]],[[78.3125,17.4625],[78.3125,17.465],[78.31,17.465],[78.31,17.4625],[78.3125,17.4625]],[[78.3075,17.4375],[78.305,17.4375],[78.305,17.435],[78.3075,17.435],[78.3075,17.4375]],[[78.3125,17.4675],[78.315,17.4675],[78.315,17.47],[78.3125,17.47],[78.3125,17.4675]],[[78.3175,17.47],[78.3175,17.4725],[78.315,17.4725],[78.315,17.47],[78.3175,17.47]],[[78.33,17.475],[78.3325,17.475],[78.3325,17.48],[78.3275,17.48],[78.3275,17.4775],[78.33,17.4775],[78.33,17.475]],[[78.3275,17.5025],[78.3275,17.5],[78.33,17.5],[78.33,17.5025],[78.3275,17.5025]],[[78.33,17.4975],[78.3325,17.4975],[78.3325,17.5],[78.33,17.5],[78.33,17.4975]],[[78.325,17.5175],[78.3275,17.5175],[78.3275,17.52],[78.325,17.52],[78.325,17.5175]],[[78.3275,17.515],[78.33,17.515],[78.33,17.5175],[78.3275,17.5175],[78.3275,17.515]],[[78.33,17.515],[78.33,17.5075],[78.3325,17.5075],[78.3325,17.515],[78.33,17.515]],[[78.325,17.505],[78.3275,17.505],[78.3275,17.5075],[78.325,17.5075],[78.325,17.505]],[[78.33,17.53],[78.33,17.5325],[78.3275,17.5325],[78.3275,17.53],[78.33,17.53]],[[78.34,17.4875],[78.34,17.49],[78.3375,17.49],[78.3375,17.4875],[78.34,17.4875]],[[78.345,17.5125],[78.3425,17.5125],[78.3425,17.51],[78.345,17.51],[78.345,17.5125]],[[78.3425,17.43],[78.3425,17.435],[78.345,17.435],[78.345,17.4375],[78.3375,17.4375],[78.3375,17.43],[78.335,17.43],[78.335,17.4275],[78.34,17.4275],[78.34,17.43],[78.3425,17.43]],[[78.3325,17.42],[78.3325,17.4175],[78.335,17.4175],[78.335,17.42],[78.3325,17.42]],[[78.3375,17.5825],[78.335,17.5825],[78.335,17.58],[78.3375,17.58],[78.3375,17.5825]],[[78.3225,17.5675],[78.325,17.5675],[78.325,17.57],[78.3225,17.57],[78.3225,17.5675]],[[78.325,17.5775],[78.325,17.575],[78.3275,17.575],[78.3275,17.5775],[78.325,17.5775]],[[78.3325,17.58],[78.3325,17.5825],[78.3275,17.5825],[78.3275,17.58],[78.3325,17.58]],[[78.3625,17.5325],[78.3625,17.53],[78.365,17.53],[78.365,17.5325],[78.3625,17.5325]],[[78.3625,17.5225],[78.365,17.5225],[78.365,17.52],[78.36,17.52],[78.36,17.5175],[78.365,17.5175],[78.365,17.515],[78.3675,17.515],[78.3675,17.525],[78.365,17.525],[78.365,17.5275],[78.36,17.5275],[78.36,17.525],[78.3625,17.525],[78.3625,17.5225]],[[78.3725,17.4775],[78.3725,17.475],[78.375,17.475],[78.375,17.4775],[78.3725,17.4775]],[[78.38,17.47],[78.38,17.4725],[78.3725,17.4725],[78.3725,17.47],[78.38,17.47]],[[78.3725,17.4625],[78.3725,17.46],[78.375,17.46],[78.375,17.4625],[78.3725,17.4625]],[[78.375,17.42],[78.3775,17.42],[78.3775,17.425],[78.375,17.425],[78.375,17.4275],[78.3725,17.4275],[78.3725,17.4225],[78.375,17.4225],[78.375,17.42]],[[78.35,17.5675],[78.3475,17.5675],[78.3475,17.5625],[78.35,17.5625],[78.35,17.5675]],[[78.3475,17.5325],[78.3475,17.5375],[78.345,17.5375],[78.345,17.5325],[78.3475,17.5325]],[[78.34,17.5525],[78.3375,17.5525],[78.3375,17.55],[78.34,17.55],[78.34,17.5525]],[[78.3675,17.4225],[78.37,17.4225],[78.37,17.43],[78.3675,17.43],[78.3675,17.4275],[78.365,17.4275],[78.365,17.43],[78.3625,17.43],[78.3625,17.4275],[78.36,17.4275],[78.36,17.425],[78.3675,17.425],[78.3675,17.4225]],[[78.36,17.4575],[78.3625,17.4575],[78.3625,17.46],[78.36,17.46],[78.36,17.4575]],[[78.35,17.475],[78.3525,17.475],[78.3525,17.4775],[78.35,17.4775],[78.35,17.475]],[[78.3575,17.545],[78.3575,17.5475],[78.355,17.5475],[78.355,17.545],[78.3575,17.545]],[[78.37,17.55],[78.37,17.5475],[78.3725,17.5475],[78.3725,17.55],[78.37,17.55]],[[78.3675,17.505],[78.3675,17.4975],[78.375,17.4975],[78.375,17.5025],[78.37,17.5025],[78.37,17.505],[78.3675,17.505]],[[78.3675,17.49],[78.365,17.49],[78.365,17.485],[78.3675,17.485],[78.3675,17.49]],[[78.3725,17.5275],[78.3725,17.53],[78.37,17.53],[78.37,17.5275],[78.3725,17.5275]],[[78.3775,17.4525],[78.375,17.4525],[78.375,17.45],[78.3775,17.45],[78.3775,17.4525]],[[78.39,17.32],[78.3925,17.32],[78.3925,17.3225],[78.39,17.3225],[78.39,17.32]],[[78.3875,17.3225],[78.3875,17.325],[78.385,17.325],[78.385,17.3225],[78.3875,17.3225]],[[78.41,17.5225],[78.41,17.525],[78.4075,17.525],[78.4075,17.5225],[78.41,17.5225]],[[78.405,17.52],[78.405,17.5175],[78.4025,17.5175],[78.4025,17.515],[78.41,17.515],[78.41,17.5175],[78.4075,17.5175],[78.4075,17.52],[78.405,17.52]],[[78.42,17.4375],[78.42,17.44],[78.4175,17.44],[78.4175,17.4375],[78.42,17.4375]],[[78.4125,17.4225],[78.4125,17.42],[78.4175,17.42],[78.4175,17.4175],[78.4225,17.4175],[78.4225,17.415],[78.425,17.415],[78.425,17.4175],[78.4275,17.4175],[78.4275,17.42],[78.425,17.42],[78.425,17.4225],[78.42,17.4225],[78.42,17.425],[78.415,17.425],[78.415,17.4225],[78.4125,17.4225]],[[78.415,17.3375],[78.42,17.3375],[78.42,17.34],[78.415,17.34],[78.415,17.3375]],[[78.42,17.33],[78.42,17.3275],[78.425,17.3275],[78.425,17.3325],[78.4225,17.3325],[78.4225,17.335],[78.4175,17.335],[78.4175,17.33],[78.42,17.33]],[[78.42,17.3175],[78.4175,17.3175],[78.4175,17.315],[78.42,17.315],[78.42,17.3175]],[[78.4,17.5375],[78.395,17.5375],[78.395,17.535],[78.3975,17.535],[78.3975,17.5275],[78.405,17.5275],[78.405,17.53],[78.4,17.53],[78.4,17.5375]],[[78.4025,17.49],[78.4025,17.4875],[78.405,17.4875],[78.405,17.49],[78.4025,17.49]],[[78.395,17.4825],[78.395,17.48],[78.3975,17.48],[78.3975,17.475],[78.395,17.475],[78.395,17.47],[78.405,17.47],[78.405,17.4725],[78.4125,17.4725],[78.4125,17.48],[78.405,17.48],[78.405,17.4825],[78.4025,17.4825],[78.4025,17.485],[78.4,17.485],[78.4,17.4825],[78.395,17.4825]],[[78.4025,17.445],[78.4025,17.4425],[78.405,17.4425],[78.405,17.445],[78.4025,17.445]],[[78.4,17.415],[78.4,17.4125],[78.4025,17.4125],[78.4025,17.415],[78.4,17.415]],[[78.3875,17.5575],[78.3875,17.5525],[78.39,17.5525],[78.39,17.555],[78.395,17.555],[78.395,17.56],[78.39,17.56],[78.39,17.5575],[78.3875,17.5575]],[[78.3925,17.5125],[78.3925,17.51],[78.395,17.51],[78.395,17.5125],[78.3925,17.5125]],[[78.3975,17.575],[78.3975,17.58],[78.3925,17.58],[78.3925,17.5775],[78.395,17.5775],[78.395,17.575],[78.3975,17.575]],[[78.395,17.395],[78.4,17.395],[78.4,17.3975],[78.395,17.3975],[78.395,17.395]],[[78.4,17.375],[78.405,17.375],[78.405,17.38],[78.4,17.38],[78.4,17.375]],[[78.4125,17.325],[78.4125,17.3275],[78.41,17.3275],[78.41,17.325],[78.4125,17.325]],[[78.41,17.3375],[78.41,17.34],[78.4125,17.34],[78.4125,17.3425],[78.41,17.3425],[78.41,17.345],[78.4075,17.345],[78.4075,17.3375],[78.41,17.3375]],[[78.41,17.33],[78.4125,17.33],[78.4125,17.3325],[78.41,17.3325],[78.41,17.33]],[[78.41,17.4675],[78.4075,17.4675],[78.4075,17.465],[78.41,17.465],[78.41,17.4675]],[[78.415,17.3525],[78.415,17.355],[78.4125,17.355],[78.4125,17.3525],[78.415,17.3525]],[[78.415,17.39],[78.4125,17.39],[78.4125,17.3875],[78.415,17.3875],[78.415,17.39]],[[78.4275,17.4875],[78.4275,17.485],[78.43,17.485],[78.43,17.4875],[78.4275,17.4875]],[[78.44,17.46],[78.435,17.46],[78.435,17.4575],[78.44,17.4575],[78.44,17.46]],[[78.435,17.4475],[78.435,17.445],[78.4375,17.445],[78.4375,17.4475],[78.435,17.4475]],[[78.4275,17.4025],[78.425,17.4025],[78.425,17.3975],[78.4425,17.3975],[78.4425,17.4],[78.4375,17.4],[78.4375,17.4025],[78.43,17.4025],[78.43,17.405],[78.4275,17.405],[78.4275,17.4025]],[[78.4375,17.335],[78.44,17.335],[78.44,17.3375],[78.4375,17.3375],[78.4375,17.34],[78.435,17.34],[78.435,17.335],[78.4325,17.335],[78.4325,17.3325],[78.4375,17.3325],[78.4375,17.335]],[[78.425,17.5375],[78.4225,17.5375],[78.4225,17.54],[78.42,17.54],[78.42,17.535],[78.425,17.535],[78.425,17.5375]],[[78.4225,17.32],[78.4225,17.3175],[78.425,17.3175],[78.425,17.32],[78.4225,17.32]],[[78.4225,17.3825],[78.4225,17.38],[78.425,17.38],[78.425,17.3825],[78.4225,17.3825]],[[78.435,17.5075],[78.4375,17.5075],[78.4375,17.5125],[78.4325,17.5125],[78.4325,17.505],[78.435,17.505],[78.435,17.5075]],[[78.5225,17.41],[78.5225,17.4075],[78.52,17.4075],[78.52,17.405],[78.5225,17.405],[78.5225,17.4025],[78.525,17.4025],[78.525,17.4],[78.5225,17.4],[78.5225,17.3975],[78.53,17.3975],[78.53,17.4],[78.5375,17.4],[78.5375,17.4075],[78.53,17.4075],[78.53,17.41],[78.5275,17.41],[78.5275,17.4125],[78.525,17.4125],[78.525,17.41],[78.5225,17.41]],[[78.5275,17.355],[78.5275,17.3575],[78.525,17.3575],[78.525,17.355],[78.5275,17.355]],[[78.4825,17.505],[78.48,17.505],[78.48,17.5025],[78.4825,17.5025],[78.4825,17.505]],[[78.475,17.435],[78.4675,17.435],[78.4675,17.4325],[78.465,17.4325],[78.465,17.425],[78.4675,17.425],[78.4675,17.415],[78.4725,17.415],[78.4725,17.41],[78.475,17.41],[78.475,17.4125],[78.4775,17.4125],[78.4775,17.4175],[78.48,17.4175],[78.48,17.42],[78.4825,17.42],[78.4825,17.4225],[78.485,17.4225],[78.485,17.43],[78.4825,17.43],[78.4825,17.4325],[78.475,17.4325],[78.475,17.435]],[[78.485,17.3275],[78.4825,17.3275],[78.4825,17.325],[78.485,17.325],[78.485,17.3275]],[[78.4675,17.3325],[78.465,17.3325],[78.465,17.33],[78.4675,17.33],[78.4675,17.3325]],[[78.455,17.5075],[78.45,17.5075],[78.45,17.505],[78.455,17.505],[78.455,17.5075]],[[78.4575,17.4425],[78.4575,17.445],[78.455,17.445],[78.455,17.4425],[78.4575,17.4425]],[[78.47,17.4],[78.4675,17.4],[78.4675,17.395],[78.47,17.395],[78.47,17.4]],[[78.4775,17.3225],[78.4775,17.32],[78.48,17.32],[78.48,17.3225],[78.4775,17.3225]],[[78.4775,17.32],[78.4725,17.32],[78.4725,17.3175],[78.4775,17.3175],[78.4775,17.32]],[[78.485,17.4125],[78.485,17.415],[78.4825,17.415],[78.4825,17.4125],[78.485,17.4125]],[[78.5075,17.3775],[78.51,17.3775],[78.51,17.3825],[78.505,17.3825],[78.505,17.38],[78.5075,17.38],[78.5075,17.3775]],[[78.5225,17.3875],[78.5225,17.39],[78.5175,17.39],[78.5175,17.3875],[78.5225,17.3875]],[[78.4875,17.51],[78.4875,17.5125],[78.4825,17.5125],[78.4825,17.51],[78.4875,17.51]],[[78.4875,17.505],[78.4875,17.5075],[78.485,17.5075],[78.485,17.505],[78.4875,17.505]],[[78.555,17.45],[78.56,17.45],[78.56,17.4525],[78.555,17.4525],[78.555,17.45]],[[78.555,17.44],[78.56,17.44],[78.56,17.4425],[78.555,17.4425],[78.555,17.44]],[[78.555,17.4025],[78.555,17.405],[78.5525,17.405],[78.5525,17.4025],[78.555,17.4025]],[[78.5575,17.395],[78.5575,17.4],[78.555,17.4],[78.555,17.395],[78.5575,17.395]],[[78.5475,17.42],[78.545,17.42],[78.545,17.4175],[78.5475,17.4175],[78.5475,17.42]],[[78.5475,17.415],[78.55,17.415],[78.55,17.4125],[78.5525,17.4125],[78.5525,17.4175],[78.5475,17.4175],[78.5475,17.415]],[[78.5325,17.435],[78.5325,17.4375],[78.53,17.4375],[78.53,17.4325],[78.535,17.4325],[78.535,17.435],[78.5325,17.435]],[[78.535,17.4225],[78.535,17.42],[78.5375,17.42],[78.5375,17.4225],[78.535,17.4225]],[[78.5325,17.42],[78.5275,17.42],[78.5275,17.415],[78.53,17.415],[78.53,17.4125],[78.5325,17.4125],[78.5325,17.415],[78.535,17.415],[78.535,17.4175],[78.5325,17.4175],[78.5325,17.42]],[[78.5325,17.41],[78.535,17.41],[78.535,17.4125],[78.5325,17.4125],[78.5325,17.41]],[[78.5325,17.385],[78.5325,17.38],[78.535,17.38],[78.535,17.385],[78.5325,17.385]],[[78.56,17.3175],[78.555,17.3175],[78.555,17.315],[78.56,17.315],[78.56,17.3175]],[[78.5525,17.4525],[78.5525,17.455],[78.55,17.455],[78.55,17.4525],[78.5525,17.4525]],[[78.555,17.495],[78.555,17.4975],[78.5525,17.4975],[78.5525,17.495],[78.555,17.495]],[[78.5775,17.495],[78.5775,17.5],[78.58,17.5],[78.58,17.5025],[78.575,17.5025],[78.575,17.495],[78.5775,17.495]],[[78.58,17.47],[78.575,17.47],[78.575,17.4675],[78.58,17.4675],[78.58,17.47]],[[78.5725,17.46],[78.5725,17.4525],[78.575,17.4525],[78.575,17.45],[78.58,17.45],[78.58,17.455],[78.5775,17.455],[78.5775,17.46],[78.5725,17.46]],[[78.5625,17.4375],[78.5625,17.435],[78.565,17.435],[78.565,17.4375],[78.5625,17.4375]],[[78.5625,17.505],[78.56,17.505],[78.56,17.5025],[78.5625,17.5025],[78.5625,17.505]],[[78.6,17.3225],[78.5975,17.3225],[78.5975,17.32],[78.6,17.32],[78.6,17.3225]],[[78.585,17.4575],[78.585,17.45],[78.5925,17.45],[78.5925,17.4575],[78.585,17.4575]],[[78.585,17.47],[78.585,17.4725],[78.5875,17.4725],[78.5875,17.475],[78.585,17.475],[78.585,17.4775],[78.58,17.4775],[78.58,17.475],[78.5775,17.475],[78.5775,17.4725],[78.5825,17.4725],[78.5825,17.47],[78.585,17.47]],[[78.58,17.465],[78.58,17.4575],[78.5825,17.4575],[78.5825,17.465],[78.58,17.465]],[[78.605,17.4625],[78.605,17.465],[78.6025,17.465],[78.6025,17.4625],[78.605,17.4625]]],[[[78.375,17.5875],[78.3825,17.5875],[78.3825,17.5775],[78.38,17.5775],[78.38,17.5825],[78.375,17.5825],[78.375,17.58],[78.37,17.58],[78.37,17.5825],[78.3725,17.5825],[78.3725,17.585],[78.375,17.585],[78.375,17.5875]]]]},"properties":{"meaning":"Approximate road-data presence, not guaranteed routability"}}],"metadata":{"bounds":[78.2375,17.295,78.6225,17.59],"method":"Occupied 0.0025-degree grid cells intersecting imported road geometry","source":"OpenStreetMap / AegisGrid road_segments","license":"ODbL-1.0","roadCount":374988,"approximate":true,"generatedAt":"2026-09-03T05:35:20.117101+00:00"}}
